{
    "links": {
        "self": "http://www.neowsapp.com/rest/v1/neo/3321628?api_key=iIulBulltgU6a56xZRHN4H3l9WmuAYTsLGpBGhQ2"
    },
    "id": "3321628",
    "neo_reference_id": "3321628",
    "name": "(2006 CM10)",
    "designation": "2006 CM10",
    "nasa_jpl_url": "http://ssd.jpl.nasa.gov/sbdb.cgi?sstr=3321628",
    "absolute_magnitude_h": 21.7,
    "estimated_diameter": {
        "kilometers": {
            "estimated_diameter_min": 0.1214940408,
            "estimated_diameter_max": 0.2716689341
        },
        "meters": {
            "estimated_diameter_min": 121.4940407996,
            "estimated_diameter_max": 271.6689340891
        },
        "miles": {
            "estimated_diameter_min": 0.0754928736,
            "estimated_diameter_max": 0.1688071972
        },
        "feet": {
            "estimated_diameter_min": 398.6025088171,
            "estimated_diameter_max": 891.3023057169
        }
    },
    "is_potentially_hazardous_asteroid": true,
    "close_approach_data": [
        {
            "close_approach_date": "2006-02-23",
            "close_approach_date_full": "2006-Feb-23 22:16",
            "epoch_date_close_approach": 1140732960000,
            "relative_velocity": {
                "kilometers_per_second": "20.4863030772",
                "kilometers_per_hour": "73750.6910780302",
                "miles_per_hour": "45825.8113534571"
            },
            "miss_distance": {
                "astronomical": "0.0882482363",
                "lunar": "34.3285639207",
                "kilometers": "13201748.181736681",
                "miles": "8203185.9333449578"
            },
            "orbiting_body": "Earth"
        },
        {
            "close_approach_date": "2140-02-16",
            "close_approach_date_full": "2140-Feb-16 07:17",
            "epoch_date_close_approach": 5368663020000,
            "relative_velocity": {
                "kilometers_per_second": "25.3464614124",
                "kilometers_per_hour": "91247.2610847732",
                "miles_per_hour": "56697.4995334803"
            },
            "miss_distance": {
                "astronomical": "0.1326745596",
                "lunar": "51.6104036844",
                "kilometers": "19847831.519348052",
                "miles": "12332870.6233130376"
            },
            "orbiting_body": "Earth"
        }
    ],
    "orbital_data": {
        "orbit_id": "17",
        "orbit_determination_date": "2017-04-06 09:09:07",
        "first_observation_date": "2006-02-07",
        "last_observation_date": "2006-02-25",
        "data_arc_in_days": 18,
        "observations_used": 65,
        "orbit_uncertainty": "8",
        "minimum_orbit_intersection": ".0192576",
        "jupiter_tisserand_invariant": "3.306",
        "epoch_osculation": "2453778.5",
        "eccentricity": ".7011849814068107",
        "semi_major_axis": "2.133661759538497",
        "inclination": "18.31415005801867",
        "ascending_node_longitude": "143.3205017572367",
        "orbital_period": "1138.378768711478",
        "perihelion_distance": ".6375701783480731",
        "perihelion_argument": "92.07940655779585",
        "aphelion_distance": "3.629753340728922",
        "perihelion_time": "2453837.385105685382",
        "mean_anomaly": "341.3782208265074",
        "mean_motion": ".3162392078055718",
        "equinox": "J2000",
        "orbit_class": {
            "orbit_class_type": "APO",
            "orbit_class_description": "Near-Earth asteroid orbits which cross the Earth’s orbit similar to that of 1862 Apollo",
            "orbit_class_range": "a (semi-major axis) > 1.0 AU; q (perihelion) < 1.017 AU"
        }
    },
    "is_sentry_object": false
}